TDRS 3                  
1 19548U 88091B   17189.94948736 -.00000302  00000-0  00000-0 0  9995
2 19548  14.4433   7.7411 0033443 314.0419 244.6277  1.00265616 92669
SKYNET 4C               
1 20776U 90079A   17189.15620697  .00000122  00000-0  00000-0 0  9994
2 20776  13.8364  15.8984 0002896  90.4428 269.6192  1.00272902 98179
TDRS 5                  
1 21639U 91054B   17189.67651654  .00000081  00000-0  00000-0 0  9995
2 21639  14.3890  21.1870 0023632 352.2085 349.2510  1.00272099 94960
TDRS 6                  
1 22314U 93003B   17189.43838573 -.00000298  00000-0  00000-0 0  9994
2 22314  13.9198  24.1299 0001673 292.6590  81.6089  1.00266499 89637
ASTRA 1D                
1 23331U 94070A   17189.52059966 -.00000271  00000-0  00000-0 0  9991
2 23331   7.5940  49.1325 0003319  52.2661 300.1567  1.00272639 83532
BRASILSAT B2            
1 23536U 95016A   17189.11091144 -.00000283  00000-0  00000-0 0  9991
2 23536   7.2149  51.0228 0002149  58.1805 148.9649  1.00272018 81646
AMSC 1                  
1 23553U 95019A   17189.60088725 -.00000119  00000-0  00000-0 0  9996
2 23553  10.1089  39.6920 0002877  56.3432 303.7043  1.00272601 81429
TDRS 7                  
1 23613U 95035B   17189.60756309 -.00000205  00000-0  00000-0 0  9997
2 23613  14.9818  14.8880 0029127   4.7219 210.6552  1.00273581 80502
ECHOSTAR 1              
1 23754U 95073A   17189.94915240 -.00000243  00000-0  00000-0 0  9995
2 23754   0.8584  90.1501 0003138  29.0105  72.3549  1.00273056 19673
INMARSAT 3-F1           
1 23839U 96020A   17189.86345715  .00000003  00000-0  00000-0 0  9990
2 23839   4.0245  67.4232 0006290  38.6861 196.2280  1.00270842 77573
ASTRA 1F                
1 23842U 96021A   17189.86916932  .00000137  00000-0  00000-0 0  9998
2 23842   0.0530 318.7078 0004073 158.5025 166.9809  1.00274009 19601
MSAT M1                 
1 23846U 96022A   17188.64001763 -.00000089  00000-0  00000-0 0  9992
2 23846   7.7818  48.6590 0004739  58.2722 301.7516  1.00272061 77687
INMARSAT 3-F2           
1 24307U 96053A   17189.86507596 -.00000128  00000-0  00000-0 0  9993
2 24307   2.6706  77.6411 0004645  10.4514 134.8301  1.00271414 76259
AMC-1 (GE-1)            
1 24315U 96054A   17188.79860412  .00000055  00000-0  00000-0 0  9991
2 24315   1.6109  85.0171 0003241  26.7308 332.5223  1.00275074 76270
AFRICASAT-2 (MEASAT-2)  
1 24653U 96063B   17189.55984826 -.00000232  00000-0  00000-0 0  9995
2 24653   7.5165  49.5501 0007343 171.8945  54.8004  1.00271523 75714
INMARSAT 3-F3           
1 24674U 96070A   17189.42097972  .00000033  00000-0  00000-0 0  9997
2 24674   3.4729  71.6859 0004814  33.2471 151.2530  1.00271894 75228
AMC-2 (GE-2)            
1 24713U 97002A   17189.59285432 -.00000215  00000-0  00000-0 0  9998
2 24713   4.3749  65.8466 0005543  37.2913 312.1694  1.00273074 25583
INTELSAT 26 (IS-26)     
1 24732U 97007A   17189.73313146 -.00000024  00000-0  00000-0 0  9992
2 24732   7.4927  49.8802 0004031  37.8297 168.3901  1.00334461 39994
GALAXY 25 (G-25)        
1 24812U 97026A   17189.46269674 -.00000164  00000-0  00000-0 0  9993
2 24812   0.0263  37.8631 0003398  65.0015 257.1734  1.00269354 73614
ABS-3                   
1 24901U 97042A   17189.76018300 -.00000197  00000-0  00000-0 0  9997
2 24901   4.9271  63.1571 0005523  26.4626 196.3023  1.00272424 72808
INTELSAT 5 (IS-5)       
1 24916U 97046A   17188.96611738 -.00000147  00000-0  00000-0 0  9997
2 24916   3.5867  71.0150 0002772  30.2530 329.5162  1.00271910 72871
AMC-3 (GE-3)            
1 24936U 97050A   17189.71299185 -.00000261  00000-0  00000-0 0  9993
2 24936   0.4252  92.2916 0003072  14.2087   5.0123  1.00273401 72707
NSS-5                   
1 24957U 97053A   17189.94367487  .00000104  00000-0  00000-0 0  9990
2 24957   3.8798  69.2126 0003783  29.6149 218.4494  1.00272473 72436
ECHOSTAR 3              
1 25004U 97059A   17188.59933266 -.00000286  00000-0  00000-0 0  9996
2 25004   2.1973  80.2129 0001783  54.0947 305.4013  1.00272902 72395
JCSAT-1B                
1 25067U 97075A   17189.45053541 -.00000212  00000-0  00000-0 0  9997
2 25067   5.5972  58.7834 0001664  58.2025 121.7489  1.00270121 71806
ASTRA 1G                
1 25071U 97076A   17189.86839530  .00000103  00000-0  00000-0 0  9996
2 25071   2.3664  78.3636 0003521  30.3839 181.9686  1.00274643 71811
BRASILSAT B3            
1 25152U 98006A   17189.56835708 -.00000287  00000-0  00000-0 0  9994
2 25152   4.0665  68.2516 0002752  36.9459 322.8883  1.00270684 71187
INMARSAT 3-F5           
1 25153U 98006B   17189.46299229 -.00000291  00000-0  00000-0 0  9991
2 25153   2.6174  74.1850 0004696  33.1466 291.9703  1.00272213 71143
NSS-806                 
1 25239U 98014A   17189.87962580 -.00000280  00000-0  00000-0 0  9995
2 25239   0.0664 331.2735 0004663 137.2443  87.6291  1.00273776 14568
CHINASAT 5A (ZX 5A)     
1 25354U 98033A   17189.79648455 -.00000356  00000-0  00000-0 0  9991
2 25354   1.2885  87.1437 0000418 354.9967 257.0495  1.00275798 74496
THOR III                
1 25358U 98035A   17188.38244909 -.00000048  00000-0  00000-0 0  9995
2 25358   5.4587  58.9938 0001590  45.0464 314.8643  1.00272541 69954
INTELSAT 805 (IS-805)   
1 25371U 98037A   17189.60743802 -.00000033  00000-0  00000-0 0  9998
2 25371   0.0588  91.0741 0003301  12.8586 210.4751  1.00272462 69807
ASTRA 2A                
1 25462U 98050A   17189.81212497 -.00000361  00000-0  00000-0 0  9992
2 25462   0.0650 226.7849 0002729 227.4290 238.5885  1.00275517 68995
AFRISTAR                
1 25515U 98063A   17189.95929539  .00000120  00000-0  00000-0 0  9994
2 25515   3.3420  69.6732 0003682  41.3179 182.4099  1.00273585 68209
JCSAT-4A                
1 25630U 99006A   17189.90537108 -.00000206  00000-0  00000-0 0  9998
2 25630   2.3380  79.9580 0004899  30.4097 292.5651  1.00274377 17868
SKYNET 4E               
1 25639U 99009B   17188.82476698  .00000017  00000-0  00000-0 0  9995
2 25639  10.1510  28.4435 0002513  84.1237 116.3007  1.00269444 67266
ASIASAT 3S              
1 25657U 99013A   17189.07894535 -.00000240  00000-0  00000-0 0  9991
2 25657   2.5513  78.1662 0003279  12.6357   9.8749  1.00270785 67075
NIMIQ 1                 
1 25740U 99027A   17189.59285432 -.00000200  00000-0  00000-0 0  9992
2 25740   0.0098   5.3500 0005227  81.9711 326.3220  1.00271786 66364
ASTRA 1H                
1 25785U 99033A   17189.83660435  .00000134  00000-0  00000-0 0  9990
2 25785   3.8646  69.3684 0003232  35.3213 166.9410  1.00271896 18672
TELKOM 1                
1 25880U 99042A   17189.91455258 -.00000346  00000-0  00000-0 0  9996
2 25880   0.0579 107.8297 0002416  10.7651 245.6759  1.00267077 65642
ABS-7                   
1 25894U 99046A   17189.84753464 -.00000364  00000-0  00000-0 0  9997
2 25894   0.0218  58.2473 0002926  54.4219 235.5596  1.00268987 64381
ABS-6                   
1 25924U 99053A   17189.76139957 -.00000122  00000-0  00000-0 0  9997
2 25924   0.0237 322.3320 0002388 143.5513 254.1384  1.00270348 65131
TELSTAR 12 (ORION 2)    
1 25949U 99059A   17189.60254437 -.00000065  00000-0  00000-0 0  9990
2 25949   0.9797  88.7829 0003335  14.4243 291.2420  1.00272375 64789
AMC-4 (GE-4)            
1 25954U 99060A   17188.44283042 -.00000208  00000-0  00000-0 0  9992
2 25954   0.0224  22.2835 0004338 151.9427 185.7789  1.00269401 64732
GALAXY 11 (G-11)        
1 26038U 99071A   17189.86916932  .00000135  00000-0  00000-0 0  9994
2 26038   0.0410 122.4833 0000365 313.2517 209.0677  1.00272755 64364
HISPASAT 1C             
1 26071U 00007A   17189.92980249 -.00000265  00000-0  00000-0 0  9996
2 26071   0.6092  89.6848 0004405  80.0966 217.2559  0.99205242 14896
SUPERBIRD-B2            
1 26095U 00012A   17189.77913285 -.00000095  00000-0  00000-0 0  9998
2 26095   0.4460  94.2765 0002943  14.9689 260.0960  1.00272057 12444
ASIASTAR                
1 26107U 00016A   17189.94017037 -.00000336  00000-0  00000-0 0  9993
2 26107   1.7168  81.9149 0004529  21.2336 267.3793  1.00274537 63184
EUTELSAT 16C            
1 26243U 00019A   17189.85532059  .00000087  00000-0  00000-0 0  9995
2 26243   4.3051  66.2174 0002619  49.6214 133.5793  1.00275590 63001
EUTELSAT 80A            
1 26369U 00028A   17189.84976556  .00000148  00000-0  00000-0 0  9995
2 26369   1.0589  85.3496 0004147   7.5759 180.3637  1.00044172 62695
TDRS 8                  
1 26388U 00034A   17189.11169073 -.00000236  00000-0  00000-0 0  9990
2 26388   7.5271  55.6596 0002367 230.6817 129.2592  1.00278074 62436
ECHOSTAR 6              
1 26402U 00038A   17189.72268116 -.00000152  00000-0  00000-0 0  9993
2 26402   4.2246  67.0109 0003733  36.6516 347.1459  1.00273343 62206
INTELSAT 9 (IS-9)       
1 26451U 00043A   17189.26597139 -.00000220  00000-0  00000-0 0  9998
2 26451   3.5730  71.2400 0003359  24.6211 254.9912  1.00355577 62090
BRASILSAT B4            
1 26469U 00046A   17188.69596062 -.00000173  00000-0  00000-0 0  9997
2 26469   1.6967  85.0984 0003122  21.3805 337.9062  1.00272796 62214
NILESAT 102             
1 26470U 00046B   17189.86507596 -.00000061  00000-0  00000-0 0  9999
2 26470   1.7245  83.6233 0003995  34.6285 113.2083  1.00272152 61891
ASTRA 2B                
1 26494U 00054A   17189.86490235 -.00000077  00000-0  00000-0 0  9992
2 26494   2.2541  79.0110 0000712  82.6996  71.7471  1.00101374 14143
AMC-7 (GE-7)            
1 26495U 00054B   17189.57830478  .00000086  00000-0  00000-0 0  9997
2 26495   0.0351  37.3930 0000336 130.8053 191.8025  1.00270930 61515
NSS-11 (AAP-1)          
1 26554U 00059A   17189.91455258 -.00000347  00000-0  00000-0 0  9996
2 26554   0.0309 304.0592 0002884 161.1645 259.2615  1.00271757  8564
N-SAT-110 (JCSAT-110)   
1 26559U 00060A   17189.97319201 -.00000353  00000-0  00000-0 0  9993
2 26559   0.0235  76.2709 0001728 359.1496 312.0919  1.00272134  8536
